KAZEOSAT 1              
1 39731U 14024A   26113.27678630  .00000010  00000+0  15898-4 0  9991
2 39731  98.3217 187.0840 0001397 100.0668 260.0680 14.42056975630648
ALOS-2                  
1 39766U 14029A   26113.28894112 -.00000074  00000+0 -29909-5 0  9991
2 39766  97.9199 211.2379 0001785  88.8362 271.3054 14.79466132643466
KAZEOSAT 2              
1 40010U 14033A   26113.26276950  .00001013  00000+0  12332-3 0  9994
2 40010  97.5450 315.7657 0009609 132.6494 227.5533 14.85405181640806
HODOYOSHI-4             
1 40011U 14033B   26113.29819759  .00000851  00000+0  97950-4 0  9997
2 40011  97.5464 300.7739 0024904 125.1426 235.2130 14.87990718640642
DEIMOS-2                
1 40013U 14033D   26113.24979316  .00000976  00000+0  97719-4 0  9991
2 40013  97.5895 349.6519 0001847 101.8617 258.2810 14.93565141629523
HODOYOSHI-3             
1 40015U 14033F   26113.01167835  .00000846  00000+0  10371-3 0  9997
2 40015  97.6369 278.2937 0033143 173.8303 186.3328 14.85260442639431
SPOT 7                  
1 40053U 14034A   26113.32092141  .00000252  00000+0  60769-4 0  9999
2 40053  98.0659 177.2173 0001577  79.9114 280.2265 14.60908504629122
SKYSAT-B                
1 40072U 14037D   26113.11695556  .00001004  00000+0  11643-3 0  9991
2 40072  98.3796  68.9647 0007009  95.3984 264.8031 14.87875768637776
WORLDVIEW-3 (WV-3)      
1 40115U 14048A   26113.25062430  .00000629  00000+0  80099-4 0  9999
2 40115  97.8580 188.8414 0002746 114.0234 246.1268 14.84926900633754
GAOFEN-2                
1 40118U 14049A   26113.31033578  .00000062  00000+0  14995-4 0  9994
2 40118  98.0140 177.5616 0008589  57.0147 303.1890 14.80832979631112
YAOGAN-21               
1 40143U 14053A   26113.27636426  .00003693  00000+0  14816-3 0  9997
2 40143  97.1526 155.8872 0006340 291.1406  68.9155 15.25566221646584
YAOGAN-22               
1 40275U 14063A   26113.27681622  .00000000  00000+0  12306-3 0  9993
2 40275 100.7638 263.6544 0005845 317.2873  42.7783 13.15529503552599
ASNARO                  
1 40298U 14070A   26113.23997196  .00006112  00000+0  29030-3 0  9990
2 40298  97.3453 190.8274 0003193  29.7991 330.3425 15.19581090635665
YAOGAN-24               
1 40310U 14072A   26113.31348123  .00000009  00000+0  90072-5 0  9991
2 40310  98.1404 250.2136 0015287  80.4137 279.8799 14.76146692615628
CBERS 4                 
1 40336U 14079A   26113.32129140  .00000101  00000+0  49647-4 0  9997
2 40336  98.3390 171.8861 0001196 133.5515 226.5771 14.35544348596081
YAOGAN-26               
1 40362U 14088A   26113.25426264  .00020446  00000+0  43242-3 0  9993
2 40362  97.0670 114.8399 0002311 221.5005 138.6070 15.45166750629218
SMAP                    
1 40376U 15003A   26113.24252564  .00000307  00000+0  68456-4 0  9994
2 40376  98.1297 121.1109 0001834  79.8014 280.3395 14.63388628599583
KOMPSAT-3A              
1 40536U 15014A   26113.26912338  .00023957  00000+0  38041-3 0  9990
2 40536  97.6906 100.7300 0060182  19.6639 340.6913 15.51236850613292
SENTINEL-2A             
1 40697U 15028A   26113.31960400  .00000141  00000+0  70406-4 0  9994
2 40697  98.5621 188.9560 0001317  87.2948 272.8386 14.30822731565885
GAOFEN-8                
1 40701U 15030A   26113.29296200  .00008054  00000+0  17871-3 0  9997
2 40701  97.6940 303.4459 0009696  39.7193 320.4763 15.43970179602974
CARBONITE 1 (CBNT-1)    
1 40718U 15032D   26113.27853426  .00001440  00000+0  18127-3 0  9991
2 40718  97.6499 293.6555 0015928 112.3145 247.9760 14.83409632581204
YAOGAN-27               
1 40878U 15040A   26113.29355192 -.00000202  00000+0 -42146-3 0  9991
2 40878 100.1148 102.0652 0008122 346.6414  13.4483 13.16067474510447
GAOFEN-9 01             
1 40894U 15047A   26113.26869826  .00000640  00000+0  85015-4 0  9994
2 40894  97.6330 151.4470 0026344 322.9233  37.0160 14.82781355572050
YAOGAN-28               
1 41026U 15064A   26113.34503156  .00004915  00000+0  18960-3 0  9994
2 41026  97.2993 252.7796 0011345  32.7915 327.4026 15.26702756582317
YAOGAN-29               
1 41038U 15069A   26113.32537936  .00000496  00000+0  67580-4 0  9996
2 41038  98.0078 141.8621 0001627 143.4880 216.6445 14.83040372562493
KENT RIDGE 1            
1 41167U 15077B   26111.38059875  .00003722  00000+0  12297-3 0  9992
2 41167  14.9806 328.3371 0008271 157.3588 202.7099 15.22777860572425
GAOFEN-4                
1 41194U 15083A   26113.13378003 -.00000346  00000+0  00000+0 0  9996
2 41194   0.3658  82.5506 0003223 133.2048 149.2807  1.00268797 37977
JASON-3                 
1 41240U 16002A   26113.24535410 -.00000027  00000+0  13755-3 0  9990
2 41240  66.0413 241.3429 0007928 274.9060  85.1054 12.87625895480178
SENTINEL-3A             
1 41335U 16011A   26113.30485900  .00000077  00000+0  49860-4 0  9991
2 41335  98.6276 181.4686 0000986  97.6497 262.4796 14.26738021530238
ZIYUAN 3-02 (ZY 3-02)   
1 41556U 16033A   26113.26932550  .00004176  00000+0  18967-3 0  9990
2 41556  97.3842 190.0916 0014075 123.7295 236.5284 15.21232479549631
CARTOSAT-2C             
1 41599U 16040A   26113.32764502  .00001945  00000+0  95572-4 0  9991
2 41599  97.4516 174.0450 0008667 331.1705  28.9050 15.19215200545385
SKYSAT-C1               
1 41601U 16040C   26112.05281524  .00007913  00000+0  23266-3 0  9993
2 41601  96.9620 146.8389 0001977 175.1242 185.0022 15.35342457549253
LAPAN-A3                
1 41603U 16040E   26113.29293913  .00002789  00000+0  90487-4 0  9993
2 41603  97.1495 111.2604 0009466 202.1777 157.9058 15.32738561546402
GAOFEN-3                
1 41727U 16049A   26113.27536639  .00000171  00000+0  65063-4 0  9997
2 41727  98.4038 121.8874 0001230  65.1673 294.9645 14.42226078510731
SKYSAT-C4               
1 41771U 16058B   26113.31127794  .00011975  00000+0  23986-3 0  9990
2 41771  96.9224 137.4376 0003620  99.1176 261.0485 15.46865538536987
SKYSAT-C5               
1 41772U 16058C   26113.11578446  .00005646  00000+0  17574-3 0  9997
2 41772  97.0530 156.2297 0004866 118.1941 241.9795 15.33659192535305
SKYSAT-C2               
1 41773U 16058D   26113.01445529  .00008909  00000+0  21933-3 0  9991
2 41773  97.0221 137.2256 0001647 212.0983 148.0164 15.40810558536559
SKYSAT-C3               
1 41774U 16058E   26112.67089732  .00014843  00000+0  26414-3 0  9996
2 41774  96.9102 145.7200 0002655 106.6635 253.4910 15.50227448537508
ALSAT-1B                
1 41785U 16059C   26113.32502436  .00000179  00000+0  35841-4 0  9995
2 41785  97.7780 124.4547 0010497  48.7153 311.4958 14.72230405512503
PATHFINDER 1            
1 41787U 16059E   26113.25308128  .00000503  00000+0  96188-4 0  9993
2 41787  97.8179 115.0100 0029070  24.3254 335.9316 14.67592140511653
SCATSAT 1               
1 41790U 16059H   26113.16028011  .00000941  00000+0  13030-3 0  9997
2 41790  98.1228 176.3542 0055952  66.2308 294.4757 14.79400881 93453
GOKTURK 1A              
1 41875U 16073A   26113.24914428  .00000526  00000+0  11227-3 0  9997
2 41875  98.1301   8.7676 0001416  81.1288 279.0074 14.62791834500798
RESOURCESAT-2A          
1 41877U 16074A   26113.24283530  .00000263  00000+0  14007-3 0  9990
2 41877  98.7537 187.1911 0001386 210.9345 149.1751 14.21617772486495
CARTOSAT-2D             
1 41948U 17008A   26113.03124485  .00003931  00000+0  18967-3 0  9991
2 41948  97.4145 173.3519 0005753  79.7608 280.4275 15.19245935509202
SENTINEL-2B             
1 42063U 17013A   26113.24242447  .00000100  00000+0  54937-4 0  9991
2 42063  98.5647 188.7959 0001263  92.7047 267.4280 14.30823125476784
CARTOSAT-2E             
1 42767U 17036C   26113.31187091 -.00000270  00000+0 -96348-5 0  9991
2 42767  97.4311 174.0040 0004132 129.2239 230.9363 15.19276758489814
FORMOSAT-5              
1 42920U 17049A   26113.22657315  .00000116  00000+0  40446-4 0  9991
2 42920  98.2262 189.7545 0010240 249.2260 110.7838 14.50876296458709
SENTINEL-5P             
1 42969U 17064A   26113.29309833  .00000045  00000+0  42152-4 0  9994
2 42969  98.7938  55.8188 0001264  82.3453 277.7866 14.19509174441776
SKYSAT-C11              
1 42987U 17068A   26113.15234503  .00020460  00000+0  30603-3 0  9994
2 42987  97.4287 259.7332 0001429 145.4583 214.6764 15.55031182474686
SKYSAT-C10              
1 42988U 17068B   26113.30768276  .00007202  00000+0  22382-3 0  9995
2 42988  97.4425 249.6877 0001569 113.1222 247.0186 15.33651549473947
SKYSAT-C9               
1 42989U 17068C   26113.29904416  .00009511  00000+0  23876-3 0  9996
2 42989  97.4347 250.1059 0007789 342.3060  17.7914 15.40192933474303
SKYSAT-C8               
1 42990U 17068D   26113.09939900  .00008402  00000+0  24317-3 0  9991
2 42990  97.4440 249.0731 0001177 110.2172 249.9198 15.35851686473857
SKYSAT-C7               
1 42991U 17068E   26112.63484544  .00007835  00000+0  22735-3 0  9991
2 42991  97.4452 249.5895 0004834 312.1992  47.8841 15.35785715473841
SKYSAT-C6               
1 42992U 17068F   26112.89225747  .00007175  00000+0  22433-3 0  9990
2 42992  97.4495 250.0015 0002076  15.2344 344.8961 15.33461712473847
CARTOSAT-2F             
1 43111U 18004A   26113.27770594  .00003030  00000+0  14695-3 0  9990
2 43111  97.4074 173.6107 0002527  99.8668 260.2852 15.19250479458993
GAOFEN-1 02             
1 43259U 18031A   26113.26869155  .00000718  00000+0  11063-3 0  9990
2 43259  98.0558 175.9373 0003247 159.2705 200.8636 14.76439578434594
GAOFEN-1 03             
1 43260U 18031B   26113.31457289  .00000516  00000+0  81646-4 0  9990
2 43260  98.0554 175.8474 0001309 223.4636 136.6470 14.76425990434592
GAOFEN-1 04             
1 43262U 18031D   26113.29029083  .00000706  00000+0  10880-3 0  9998
2 43262  98.0560 176.0070 0000694  87.2224 272.9065 14.76461995434589
SENTINEL-3B             
1 43437U 18039A   26113.20787565  .00000069  00000+0  46455-4 0  9997
2 43437  98.6275 181.5209 0001663  95.3318 264.8052 14.26732643416287
